IRIDIUM 57              
1 25273U 98019B   25015.89637164  .00000512  00000+0  17052-3 0  9998
2 25273  86.3962 209.0019 0001963  91.6252 268.5169 14.35686095402932
IRIDIUM 63              
1 25286U 98021B   25015.90242472  .00000779  00000+0  25980-3 0  9995
2 25286  86.4024 145.9943 0002116  90.5490 269.5950 14.36322162402250
IRIDIUM 69              
1 25319U 98026A   25015.89347679  .00001052  00000+0  32361-3 0  9996
2 25319  86.4018 159.7294 0003445 133.6056 226.5429 14.40675395401139
IRIDIUM 71              
1 25320U 98026B   25015.92190718  .00000839  00000+0  25572-3 0  9990
2 25320  86.4017 154.4420 0001544 166.1126 194.0116 14.40906455401664
IRIDIUM 73              
1 25344U 98032C   25015.78258120  .00001015  00000+0  24974-3 0  9991
2 25344  86.4425 111.5581 0002536 107.7833 252.3649 14.51350268408453
IRIDIUM 82              
1 25467U 98051A   25015.92052400  .00026900  00000+0  10026-2 0  9999
2 25467  86.3730 183.9820 0103208 150.6774 210.0318 15.22345400400711
